*******************************************************************************
JPL/HORIZONS                     (1997 XE10)               2020-Dec-13 21:56:05
Rec #:50001114 (+COV) Soln.date: 2020-Dec-13_05:25:01     # obs: 65 (1997-2020)
 
IAU76/J2000 helio. ecliptic osc. elements (au, days, deg., period=Julian yrs):
 
  EPOCH=  2455939.5 ! 2012-Jan-13.00 (TDB)         Residual RMS= .8901
   EC= .4768464358228017   QR= .97816947280305     TP= 2455475.9727327283
   OM= 72.65593582573342   W=  24.75136994310044   IN= 6.32246019281689
   A= 1.869755918305724    MA= 178.6907147245848   ADIST= 2.761342363808398
   PER= 2.55673            N= .385502046           ANGMOM= .020675507
   DAN= 1.00807            DDN= 2.54799            L= 97.2746657
   B= 2.6426649            MOID= .0156531          TP= 2010-Oct-06.4727327283
 
Asteroid physical parameters (km, seconds, rotational period in hours):
   GM= n.a.                RAD= n.a.               ROTPER= n.a.
   H= 25.                  G= .150                 B-V= n.a.
                           ALBEDO= n.a.            STYP= n.a.
 
ASTEROID comments: 
1: soln ref.= JPL#14, OCC=0
2: source=ORB
*******************************************************************************
 
 
*******************************************************************************
Ephemeris / WWW_USER Sun Dec 13 21:56:05 2020 Pasadena, USA      / Horizons    
*******************************************************************************
Target body name: (1997 XE10)                     {source: JPL#14}
Center body name: Solar System Barycenter (0)     {source: DE431}
Center-site name: BODYCENTRIC
*******************************************************************************
Start time      : A.D. 2014-Jan-01 00:00:00.0000 UT      
Stop  time      : A.D. 2023-Jan-01 00:00:00.0000 UT      
Step-size       : 1440 minutes
*******************************************************************************
Target pole/equ : No model available
Target radii    : (unavailable)                                                
Center geodetic : 0.00000000,0.00000000,0.0000000 {E-lon(deg),Lat(deg),Alt(km)}
Center cylindric: 0.00000000,0.00000000,0.0000000 {E-lon(deg),Dxy(km),Dz(km)}
Center pole/equ : ICRF
Center radii    : (undefined)                                                  
Target primary  : Sun
Vis. interferer : None
Rel. light bend : Sun                             {source: DE431}
Rel. lght bnd GM: 1.3271E+11 km^3/s^2                                          
Small-body perts: Yes                             {source: SB431-N16}
Atmos refraction: NO (AIRLESS)
RA format       : DEG
Time format     : CAL 
EOP file        : eop.201211.p210304                                           
EOP coverage    : DATA-BASED 1962-JAN-20 TO 2020-DEC-11. PREDICTS-> 2021-MAR-03
Units conversion: 1 au= 149597870.700 km, c= 299792.458 km/s, 1 day= 86400.0 s 
Table cut-offs 1: Elevation (-90.0deg=NO ),Airmass     n.a.    , Daylight (NO )
Table cut-offs 2: Solar elongation (  0.0,180.0=NO ),Local Hour Angle( 0.0=NO )
Table cut-offs 3: RA/DEC angular rate (     0.0=NO )                           
*******************************************************************************
Initial IAU76/J2000 heliocentric ecliptic osculating elements (au, days, deg.):
  EPOCH=  2455939.5 ! 2012-Jan-13.00 (TDB)         Residual RMS= .8901         
   EC= .4768464358228017   QR= .97816947280305     TP= 2455475.9727327283      
   OM= 72.65593582573342   W=  24.75136994310044   IN= 6.32246019281689        
  Equivalent ICRF heliocentric equatorial cartesian coordinates (au, au/d):
   X= 3.241747453522237E-01  Y=-2.463631018580149E+00  Z=-1.204099315391187E+00
  VX= 7.401596683740676E-03 VY= 1.077306736948940E-03 VZ=-3.556372228077480E-04
Asteroid physical parameters (km, seconds, rotational period in hours):        
   GM= n.a.                RAD= n.a.               ROTPER= n.a.                
   H= 25.                  G= .150                 B-V= n.a.                   
                           ALBEDO= n.a.            STYP= n.a.                  
*******************************************************************************
 Date__(UT)__HR:MN                delta     GlxLon     GlxLat
*************************************************************
$$SOE
 2022-Jul-13 00:00     4.0075720955E+08  14.071064 -21.057720
 2022-Jul-14 00:00     4.0049088125E+08  14.147390 -21.206149
 2022-Jul-15 00:00     4.0022170922E+08  14.223971 -21.354740
 2022-Jul-16 00:00     3.9994969186E+08  14.300810 -21.503495
 2022-Jul-17 00:00     3.9967482755E+08  14.377911 -21.652417
 2022-Jul-18 00:00     3.9939711466E+08  14.455277 -21.801507
 2022-Jul-19 00:00     3.9911655154E+08  14.532911 -21.950768
 2022-Jul-20 00:00     3.9883313652E+08  14.610817 -22.100201
 2022-Jul-21 00:00     3.9854686793E+08  14.688999 -22.249809
 2022-Jul-22 00:00     3.9825774407E+08  14.767460 -22.399594
 2022-Jul-23 00:00     3.9796576322E+08  14.846204 -22.549557
 2022-Jul-24 00:00     3.9767092368E+08  14.925234 -22.699701
 2022-Jul-25 00:00     3.9737322369E+08  15.004555 -22.850029
 2022-Jul-26 00:00     3.9707266151E+08  15.084170 -23.000541
 2022-Jul-27 00:00     3.9676923536E+08  15.164083 -23.151241
 2022-Jul-28 00:00     3.9646294347E+08  15.244298 -23.302130
 2022-Jul-29 00:00     3.9615378402E+08  15.324819 -23.453211
 2022-Jul-30 00:00     3.9584175522E+08  15.405650 -23.604485
 2022-Jul-31 00:00     3.9552685523E+08  15.486795 -23.755955
 2022-Aug-01 00:00     3.9520908221E+08  15.568258 -23.907623
 2022-Aug-02 00:00     3.9488843430E+08  15.650043 -24.059491
 2022-Aug-03 00:00     3.9456490964E+08  15.732154 -24.211562
 2022-Aug-04 00:00     3.9423850634E+08  15.814597 -24.363837
 2022-Aug-05 00:00     3.9390922249E+08  15.897374 -24.516319
 2022-Aug-06 00:00     3.9357705620E+08  15.980491 -24.669010
 2022-Aug-07 00:00     3.9324200552E+08  16.063951 -24.821912
 2022-Aug-08 00:00     3.9290406853E+08  16.147760 -24.975027
 2022-Aug-09 00:00     3.9256324326E+08  16.231922 -25.128358
 2022-Aug-10 00:00     3.9221952774E+08  16.316441 -25.281907
 2022-Aug-11 00:00     3.9187292000E+08  16.401323 -25.435677
 2022-Aug-12 00:00     3.9152341804E+08  16.486572 -25.589668
 2022-Aug-13 00:00     3.9117101986E+08  16.572193 -25.743884
 2022-Aug-14 00:00     3.9081572342E+08  16.658190 -25.898328
 2022-Aug-15 00:00     3.9045752669E+08  16.744569 -26.053000
 2022-Aug-16 00:00     3.9009642764E+08  16.831335 -26.207904
 2022-Aug-17 00:00     3.8973242418E+08  16.918493 -26.363042
 2022-Aug-18 00:00     3.8936551426E+08  17.006047 -26.518417
 2022-Aug-19 00:00     3.8899569578E+08  17.094005 -26.674030
 2022-Aug-20 00:00     3.8862296665E+08  17.182369 -26.829883
 2022-Aug-21 00:00     3.8824732476E+08  17.271147 -26.985980
 2022-Aug-22 00:00     3.8786876797E+08  17.360343 -27.142323
 2022-Aug-23 00:00     3.8748729416E+08  17.449963 -27.298913
 2022-Aug-24 00:00     3.8710290118E+08  17.540014 -27.455754
 2022-Aug-25 00:00     3.8671558686E+08  17.630499 -27.612848
 2022-Aug-26 00:00     3.8632534904E+08  17.721426 -27.770197
 2022-Aug-27 00:00     3.8593218553E+08  17.812800 -27.927803
 2022-Aug-28 00:00     3.8553609414E+08  17.904627 -28.085669
 2022-Aug-29 00:00     3.8513707266E+08  17.996914 -28.243798
 2022-Aug-30 00:00     3.8473511888E+08  18.089665 -28.402192
 2022-Aug-31 00:00     3.8433023056E+08  18.182889 -28.560853
 2022-Sep-01 00:00     3.8392240547E+08  18.276591 -28.719784
 2022-Sep-02 00:00     3.8351164137E+08  18.370777 -28.878987
 2022-Sep-03 00:00     3.8309793599E+08  18.465455 -29.038464
 2022-Sep-04 00:00     3.8268128705E+08  18.560630 -29.198219
 2022-Sep-05 00:00     3.8226169230E+08  18.656310 -29.358254
 2022-Sep-06 00:00     3.8183914942E+08  18.752502 -29.518570
 2022-Sep-07 00:00     3.8141365613E+08  18.849212 -29.679172
 2022-Sep-08 00:00     3.8098521012E+08  18.946447 -29.840061
 2022-Sep-09 00:00     3.8055380907E+08  19.044216 -30.001239
 2022-Sep-10 00:00     3.8011945065E+08  19.142525 -30.162710
 2022-Sep-11 00:00     3.7968213253E+08  19.241381 -30.324476
 2022-Sep-12 00:00     3.7924185237E+08  19.340792 -30.486539
 2022-Sep-13 00:00     3.7879860781E+08  19.440767 -30.648902
 2022-Sep-14 00:00     3.7835239649E+08  19.541312 -30.811568
 2022-Sep-15 00:00     3.7790321606E+08  19.642436 -30.974539
 2022-Sep-16 00:00     3.7745106413E+08  19.744147 -31.137818
 2022-Sep-17 00:00     3.7699593833E+08  19.846454 -31.301407
 2022-Sep-18 00:00     3.7653783626E+08  19.949363 -31.465310
 2022-Sep-19 00:00     3.7607675553E+08  20.052885 -31.629528
 2022-Sep-20 00:00     3.7561269374E+08  20.157027 -31.794064
 2022-Sep-21 00:00     3.7514564848E+08  20.261799 -31.958921
 2022-Sep-22 00:00     3.7467561734E+08  20.367209 -32.124101
 2022-Sep-23 00:00     3.7420259790E+08  20.473266 -32.289608
 2022-Sep-24 00:00     3.7372658774E+08  20.579981 -32.455444
 2022-Sep-25 00:00     3.7324758443E+08  20.687362 -32.621611
 2022-Sep-26 00:00     3.7276558554E+08  20.795419 -32.788112
 2022-Sep-27 00:00     3.7228058863E+08  20.904161 -32.954950
 2022-Sep-28 00:00     3.7179259126E+08  21.013599 -33.122128
 2022-Sep-29 00:00     3.7130159100E+08  21.123743 -33.289648
 2022-Sep-30 00:00     3.7080758538E+08  21.234602 -33.457513
 2022-Oct-01 00:00     3.7031057197E+08  21.346189 -33.625726
 2022-Oct-02 00:00     3.6981054832E+08  21.458512 -33.794289
 2022-Oct-03 00:00     3.6930751197E+08  21.571584 -33.963205
 2022-Oct-04 00:00     3.6880146046E+08  21.685415 -34.132477
 2022-Oct-05 00:00     3.6829239136E+08  21.800016 -34.302107
 2022-Oct-06 00:00     3.6778030219E+08  21.915399 -34.472099
 2022-Oct-07 00:00     3.6726519051E+08  22.031576 -34.642455
 2022-Oct-08 00:00     3.6674705385E+08  22.148558 -34.813177
 2022-Oct-09 00:00     3.6622588978E+08  22.266359 -34.984269
